GLOBALSTAR M001         
1 25162U 98008A   24159.89656926 -.00000058  00000+0  29485-3 0  9997
2 25162  52.0050 342.6055 0001922 152.5692 354.9215 12.38185030197343
GLOBALSTAR M004         
1 25163U 98008B   24159.65100950 -.00000083  00000+0  11397-3 0  9994
2 25163  51.9986 116.7419 0002680 174.8023 356.8122 12.63361351214349
GLOBALSTAR M002         
1 25164U 98008C   24159.55632875 -.00000099  00000+0 -43897-3 0  9998
2 25164  52.0011  99.5205 0000890 166.4985 193.5858 11.61502811140533
GLOBALSTAR M003         
1 25165U 98008D   24159.66370363  .00000028  00000+0  12513-2 0  9992
2 25165  51.9857 125.8046 0007843 260.8360 270.0595 12.12008665187802
GLOBALSTAR M014         
1 25306U 98023A   24159.92237891 -.00000083  00000+0 -10843-3 0  9991
2 25306  51.9865  29.6968 0001548  48.5901 324.5364 11.65467928147533
GLOBALSTAR M006         
1 25307U 98023B   24158.77428635 -.00000047  00000+0  59053-3 0  9997
2 25307  51.9953  71.0408 0003623 140.2038 233.6175 11.58165031173338
GLOBALSTAR M015         
1 25308U 98023C   24159.92717567 -.00000079  00000+0 -11988-3 0  9992
2 25308  51.9783 149.4875 0012333 131.2265 300.0573 11.48853046151064
GLOBALSTAR M008         
1 25309U 98023D   24159.43776424 -.00000050  00000+0  36462-3 0  9998
2 25309  51.9948 204.5261 0002629 111.3545 351.1121 12.36043683191502
